[{"OBJECT_NAME":"YAOGAN-30 08C","OBJECT_ID":"2020-076C","EPOCH":"2026-03-09T22:12:19.215360","MEAN_MOTION":15.02142271,"ECCENTRICITY":0.00075536,"INCLINATION":34.9972,"RA_OF_ASC_NODE":335.6323,"ARG_OF_PERICENTER":280.0853,"MEAN_ANOMALY":79.9003,"EPHEMERIS_TYPE":0,"CLASSIFICATION_TYPE":"U","NORAD_CAT_ID":46809,"ELEMENT_SET_NO":999,"REV_AT_EPOCH":29320,"BSTAR":0.00034959402,"MEAN_MOTION_DOT":4.668e-5,"MEAN_MOTION_DDOT":0},{"OBJECT_NAME":"STARLINK-36212","OBJECT_ID":"2025-304AA","EPOCH":"2026-03-09T16:41:27.859776","MEAN_MOTION":15.00195424,"ECCENTRICITY":0.00049779,"INCLINATION":70.0014,"RA_OF_ASC_NODE":174.5126,"ARG_OF_PERICENTER":278.3638,"MEAN_ANOMALY":81.6957,"EPHEMERIS_TYPE":0,"CLASSIFICATION_TYPE":"U","NORAD_CAT_ID":67216,"ELEMENT_SET_NO":999,"REV_AT_EPOCH":1388,"BSTAR":0.057619822,"MEAN_MOTION_DOT":0.00772353,"MEAN_MOTION_DDOT":0}]
